start=new Date('2022-08-03T00:00:00.000Z').valueOf();
sats=[{"NORAD_CAT_ID":"47897","RCS_SIZE":"LARGE","ARG_OF_PERICENTER":"82.8468","MEAN_MOTION_DOT":"0.00000509","TLE_LINE2":"2 47897  53.0567  54.1713 0001439  82.8468 277.2685 15.06401548 78025","ECCENTRICITY":"0.00014390","INCLINATION":"53.0567","MEAN_MOTION":"15.06401548","TLE_LINE1":"1 47897U 21021AP  22214.84605965  .00000509  00000-0  53071-4 0  9999","EPHEMERIS_TYPE":"0","CLASSIFICATION_TYPE":"U","FILE":"3527804","MEAN_MOTION_DDOT":"0.0000000000000","PERIOD":"95.592","RA_OF_ASC_NODE":"54.1713","ELEMENT_SET_NO":"999","REV_AT_EPOCH":"7802","SEMIMAJOR_AXIS":"6925.344","SITE":"AFETR","COUNTRY_CODE":"US","CENTER_NAME":"EARTH","OBJECT_ID":"2021-021AP","APOAPSIS":"548.205","REF_FRAME":"TEME","TIME_SYSTEM":"UTC","PERIAPSIS":"546.212","OBJECT_TYPE":"PAYLOAD","DECAY_DATE":null,"GP_ID":"209454376","MEAN_ANOMALY":"277.2685","BSTAR":"0.00005307100000","OBJECT_NAME":"STARLINK-2357","LAUNCH_DATE":"2021-03-14","MEAN_ELEMENT_THEORY":"SGP4","EPOCH":"2022-08-02T20:18:19.553760"},{"DECAY_DATE":null,"GP_ID":"209455628","BSTAR":"-0.00000467780000","MEAN_ANOMALY":"274.1290","MEAN_ELEMENT_THEORY":"SGP4","LAUNCH_DATE":"2021-03-14","EPOCH":"2022-08-02T20:09:03.809088","OBJECT_NAME":"STARLINK-2358","SITE":"AFETR","SEMIMAJOR_AXIS":"6925.347","CENTER_NAME":"EARTH","OBJECT_ID":"2021-021AQ","COUNTRY_CODE":"US","REF_FRAME":"TEME","APOAPSIS":"548.212","OBJECT_TYPE":"PAYLOAD","PERIAPSIS":"546.213","TIME_SYSTEM":"UTC","TLE_LINE1":"1 47898U 21021AQ  22214.83962742 -.00000351  00000-0 -46778-5 0  9992","MEAN_MOTION":"15.06400363","MEAN_MOTION_DDOT":"0.0000000000000","FILE":"3527804","CLASSIFICATION_TYPE":"U","EPHEMERIS_TYPE":"0","ELEMENT_SET_NO":"999","RA_OF_ASC_NODE":"54.2205","PERIOD":"95.592","REV_AT_EPOCH":"7796","NORAD_CAT_ID":"47898","ARG_OF_PERICENTER":"85.9864","RCS_SIZE":"LARGE","TLE_LINE2":"2 47898  53.0548  54.2205 0001443  85.9864 274.1290 15.06400363 77965","MEAN_MOTION_DOT":"-0.00000351","INCLINATION":"53.0548","ECCENTRICITY":"0.00014430"},{"REV_AT_EPOCH":"7817","PERIOD":"95.592","ELEMENT_SET_NO":"999","RA_OF_ASC_NODE":"43.9178","EPHEMERIS_TYPE":"0","CLASSIFICATION_TYPE":"U","FILE":"3527804","MEAN_MOTION_DDOT":"0.0000000000000","MEAN_MOTION":"15.06399613","TLE_LINE1":"1 47899U 21021AR  22214.90226685 -.00000229  00000-0  35233-5 0  9997","ECCENTRICITY":"0.00015320","INCLINATION":"53.0555","MEAN_MOTION_DOT":"-0.00000229","TLE_LINE2":"2 47899  53.0555  43.9178 0001532  94.3952 265.7212 15.06399613 78178","RCS_SIZE":"LARGE","ARG_OF_PERICENTER":"94.3952","NORAD_CAT_ID":"47899","OBJECT_NAME":"STARLINK-2359","LAUNCH_DATE":"2021-03-14","MEAN_ELEMENT_THEORY":"SGP4","EPOCH":"2022-08-02T21:39:15.855840","MEAN_ANOMALY":"265.7212","BSTAR":"0.00000352330000","DECAY_DATE":null,"GP_ID":"209455378","TIME_SYSTEM":"UTC","PERIAPSIS":"546.154","OBJECT_TYPE":"PAYLOAD","APOAPSIS":"548.276","REF_FRAME":"TEME","COUNTRY_CODE":"US","CENTER_NAME":"EARTH","OBJECT_ID":"2021-021AR","SEMIMAJOR_AXIS":"6925.350","SITE":"AFETR"},{"LAUNCH_DATE":"2021-03-14","EPOCH":"2022-08-02T06:19:42.016800","MEAN_ELEMENT_THEORY":"SGP4","OBJECT_NAME":"STARLINK-2360","BSTAR":"0.00018506000000","MEAN_ANOMALY":"285.5535","GP_ID":"209427161","DECAY_DATE":null,"OBJECT_TYPE":"PAYLOAD","TIME_SYSTEM":"UTC","PERIAPSIS":"546.195","APOAPSIS":"548.225","REF_FRAME":"TEME","COUNTRY_CODE":"US","CENTER_NAME":"EARTH","OBJECT_ID":"2021-021AS","SITE":"AFETR","SEMIMAJOR_AXIS":"6925.345","REV_AT_EPOCH":"7793","PERIOD":"95.592","ELEMENT_SET_NO":"999","RA_OF_ASC_NODE":"56.8042","FILE":"3527697","MEAN_MOTION_DDOT":"0.0000000000000","EPHEMERIS_TYPE":"0","CLASSIFICATION_TYPE":"U","MEAN_MOTION":"15.06401133","TLE_LINE1":"1 47900U 21021AS  22214.26368075  .00002476  00000-0  18506-3 0  9996","ECCENTRICITY":"0.00014660","INCLINATION":"53.0546","TLE_LINE2":"2 47900  53.0546  56.8042 0001466  74.5616 285.5535 15.06401133 77939","MEAN_MOTION_DOT":"0.00002476","ARG_OF_PERICENTER":"74.5616","RCS_SIZE":"LARGE","NORAD_CAT_ID":"47900"},{"DECAY_DATE":null,"GP_ID":"209426912","MEAN_ANOMALY":"274.1227","BSTAR":"0.00002917600000","OBJECT_NAME":"STARLINK-2361","EPOCH":"2022-08-02T13:27:02.001312","LAUNCH_DATE":"2021-03-14","MEAN_ELEMENT_THEORY":"SGP4","SEMIMAJOR_AXIS":"6925.370","SITE":"AFETR","COUNTRY_CODE":"US","CENTER_NAME":"EARTH","OBJECT_ID":"2021-021AT","APOAPSIS":"548.185","REF_FRAME":"TEME","TIME_SYSTEM":"UTC","PERIAPSIS":"546.285","OBJECT_TYPE":"PAYLOAD","MEAN_MOTION":"15.06392909","TLE_LINE1":"1 47901U 21021AT  22214.56043983  .00000153  00000-0  29176-4 0  9994","EPHEMERIS_TYPE":"0","CLASSIFICATION_TYPE":"U","FILE":"3527697","MEAN_MOTION_DDOT":"0.0000000000000","PERIOD":"95.593","RA_OF_ASC_NODE":"45.5583","ELEMENT_SET_NO":"999","REV_AT_EPOCH":"7810","NORAD_CAT_ID":"47901","RCS_SIZE":"LARGE","ARG_OF_PERICENTER":"85.9919","MEAN_MOTION_DOT":"0.00000153","TLE_LINE2":"2 47901  53.0564  45.5583 0001372  85.9919 274.1227 15.06392909 78105","ECCENTRICITY":"0.00013720","INCLINATION":"53.0564"},{"GP_ID":"209455128","DECAY_DATE":null,"BSTAR":"-0.00005191600000","MEAN_ANOMALY":"279.6905","EPOCH":"2022-08-02T17:49:44.959008","LAUNCH_DATE":"2021-03-14","MEAN_ELEMENT_THEORY":"SGP4","OBJECT_NAME":"STARLINK-2362","SITE":"AFETR","SEMIMAJOR_AXIS":"6925.334","COUNTRY_CODE":"US","CENTER_NAME":"EARTH","OBJECT_ID":"2021-021AU","APOAPSIS":"548.195","REF_FRAME":"TEME","OBJECT_TYPE":"PAYLOAD","TIME_SYSTEM":"UTC","PERIAPSIS":"546.203","MEAN_MOTION":"15.06404803","TLE_LINE1":"1 47902U 21021AU  22214.74288147 -.00001055  00000-0 -51916-4 0  9999","FILE":"3527804","MEAN_MOTION_DDOT":"0.0000000000000","EPHEMERIS_TYPE":"0","CLASSIFICATION_TYPE":"U","PERIOD":"95.592","ELEMENT_SET_NO":"999","RA_OF_ASC_NODE":"64.6464","REV_AT_EPOCH":"7796","NORAD_CAT_ID":"47902","ARG_OF_PERICENTER":"80.4246","RCS_SIZE":"LARGE","TLE_LINE2":"2 47902  53.0557  64.6464 0001438  80.4246 279.6905 15.06404803 77967","MEAN_MOTION_DOT":"-0.00001055","ECCENTRICITY":"0.00014380","INCLINATION":"53.0557"},{"TIME_SYSTEM":"UTC","PERIAPSIS":"546.154","OBJECT_TYPE":"PAYLOAD","APOAPSIS":"548.280","REF_FRAME":"TEME","COUNTRY_CODE":"US","CENTER_NAME":"EARTH","OBJECT_ID":"2021-021AV","SEMIMAJOR_AXIS":"6925.352","SITE":"AFETR","OBJECT_NAME":"STARLINK-2363","LAUNCH_DATE":"2021-03-14","EPOCH":"2022-08-02T05:38:33.988704","MEAN_ELEMENT_THEORY":"SGP4","MEAN_ANOMALY":"279.6514","BSTAR":"0.00016347000000","GP_ID":"209433151","DECAY_DATE":null,"ECCENTRICITY":"0.00015350","INCLINATION":"53.0559","MEAN_MOTION_DOT":"0.00002154","TLE_LINE2":"2 47903  53.0559  46.9171 0001535  80.4648 279.6514 15.06398823 77591","RCS_SIZE":"LARGE","ARG_OF_PERICENTER":"80.4648","NORAD_CAT_ID":"47903","REV_AT_EPOCH":"7759","PERIOD":"95.592","RA_OF_ASC_NODE":"46.9171","ELEMENT_SET_NO":"999","EPHEMERIS_TYPE":"0","CLASSIFICATION_TYPE":"U","FILE":"3527768","MEAN_MOTION_DDOT":"0.0000000000000","MEAN_MOTION":"15.06398823","TLE_LINE1":"1 47903U 21021AV  22214.23511561  .00002154  00000-0  16347-3 0  9990"},{"NORAD_CAT_ID":"47904","RCS_SIZE":"LARGE","ARG_OF_PERICENTER":"97.9364","MEAN_MOTION_DOT":"0.00000626","TLE_LINE2":"2 47904  53.0554  43.9660 0001201  97.9364 262.1761 15.06401949 78142","INCLINATION":"53.0554","ECCENTRICITY":"0.00012010","TLE_LINE1":"1 47904U 21021AW  22214.89584045  .00000626  00000-0  60876-4 0  9999","MEAN_MOTION":"15.06401949","CLASSIFICATION_TYPE":"U","EPHEMERIS_TYPE":"0","MEAN_MOTION_DDOT":"0.0000000000000","FILE":"3527804","ELEMENT_SET_NO":"999","RA_OF_ASC_NODE":"43.9660","PERIOD":"95.592","REV_AT_EPOCH":"7814","SEMIMAJOR_AXIS":"6925.343","SITE":"AFETR","OBJECT_ID":"2021-021AW","CENTER_NAME":"EARTH","COUNTRY_CODE":"US","REF_FRAME":"TEME","APOAPSIS":"548.039","PERIAPSIS":"546.376","TIME_SYSTEM":"UTC","OBJECT_TYPE":"PAYLOAD","DECAY_DATE":null,"GP_ID":"209454627","MEAN_ANOMALY":"262.1761","BSTAR":"0.00006087600000","OBJECT_NAME":"STARLINK-2364","EPOCH":"2022-08-02T21:30:00.614880","LAUNCH_DATE":"2021-03-14","MEAN_ELEMENT_THEORY":"SGP4"},{"NORAD_CAT_ID":"47905","ARG_OF_PERICENTER":"85.6556","RCS_SIZE":"LARGE","TLE_LINE2":"2 47905  53.0556  44.5656 0001473  85.6556 274.4601 15.06386418 78259","MEAN_MOTION_DOT":"-0.00000336","ECCENTRICITY":"0.00014730","INCLINATION":"53.0556","MEAN_MOTION":"15.06386418","TLE_LINE1":"1 47905U 21021AX  22214.75852276 -.00000336  00000-0 -36951-5 0  9997","FILE":"3527804","MEAN_MOTION_DDOT":"0.0000000000000","EPHEMERIS_TYPE":"0","CLASSIFICATION_TYPE":"U","PERIOD":"95.593","ELEMENT_SET_NO":"999","RA_OF_ASC_NODE":"44.5656","REV_AT_EPOCH":"7825","SITE":"AFETR","SEMIMAJOR_AXIS":"6925.390","COUNTRY_CODE":"US","OBJECT_ID":"2021-021AX","CENTER_NAME":"EARTH","APOAPSIS":"548.275","REF_FRAME":"TEME","OBJECT_TYPE":"PAYLOAD","TIME_SYSTEM":"UTC","PERIAPSIS":"546.235","DECAY_DATE":null,"GP_ID":"209454377","BSTAR":"-0.00000369510000","MEAN_ANOMALY":"274.4601","LAUNCH_DATE":"2021-03-14","EPOCH":"2022-08-02T18:12:16.366464","MEAN_ELEMENT_THEORY":"SGP4","OBJECT_NAME":"STARLINK-2365"},{"REV_AT_EPOCH":"8075","RA_OF_ASC_NODE":"223.3531","ELEMENT_SET_NO":"999","PERIOD":"91.328","MEAN_MOTION_DDOT":"0.0000000000000","FILE":"3527697","CLASSIFICATION_TYPE":"U","EPHEMERIS_TYPE":"0","TLE_LINE1":"1 47906U 21021AY  22214.48531771 -.00011134  00000-0 -63948-4 0  9995","MEAN_MOTION":"15.76725941","INCLINATION":"53.0290","ECCENTRICITY":"0.00067170","TLE_LINE2":"2 47906  53.0290 223.3531 0006717 307.9846  52.0566 15.76725941 80755","MEAN_MOTION_DOT":"-0.00011134","ARG_OF_PERICENTER":"307.9846","RCS_SIZE":"LARGE","NORAD_CAT_ID":"47906","EPOCH":"2022-08-02T11:38:51.450144","LAUNCH_DATE":"2021-03-14","MEAN_ELEMENT_THEORY":"SGP4","OBJECT_NAME":"STARLINK-2366","BSTAR":"-0.00006394800000","MEAN_ANOMALY":"52.0566","GP_ID":"209427664","DECAY_DATE":null,"OBJECT_TYPE":"PAYLOAD","PERIAPSIS":"335.214","TIME_SYSTEM":"UTC","REF_FRAME":"TEME","APOAPSIS":"344.239","OBJECT_ID":"2021-021AY","CENTER_NAME":"EARTH","COUNTRY_CODE":"US","SITE":"AFETR","SEMIMAJOR_AXIS":"6717.861"}];
